[{"OBJECT_NAME":"STARLINK-30382","OBJECT_ID":"2023-134R","EPOCH":"2026-03-09T09:09:23.129280","MEAN_MOTION":15.26740595,"ECCENTRICITY":0.00012881,"INCLINATION":43,"RA_OF_ASC_NODE":195.885,"ARG_OF_PERICENTER":255.3449,"MEAN_ANOMALY":104.7259,"EPHEMERIS_TYPE":0,"CLASSIFICATION_TYPE":"U","NORAD_CAT_ID":57786,"ELEMENT_SET_NO":999,"REV_AT_EPOCH":13946,"BSTAR":1.4912789e-5,"MEAN_MOTION_DOT":1.4e-6,"MEAN_MOTION_DDOT":0},{"OBJECT_NAME":"SL-3 R\/B","OBJECT_ID":"1982-027B","EPOCH":"2026-03-09T22:44:40.208640","MEAN_MOTION":15.28335844,"ECCENTRICITY":0.00065199,"INCLINATION":81.188,"RA_OF_ASC_NODE":37.4466,"ARG_OF_PERICENTER":276.581,"MEAN_ANOMALY":83.4683,"EPHEMERIS_TYPE":0,"CLASSIFICATION_TYPE":"U","NORAD_CAT_ID":13121,"ELEMENT_SET_NO":999,"REV_AT_EPOCH":39859,"BSTAR":0.00030526741,"MEAN_MOTION_DOT":8.453e-5,"MEAN_MOTION_DDOT":0}]
